[{"OBJECT_NAME":"STARLINK-4742","OBJECT_ID":"2022-111Y","EPOCH":"2026-03-09T17:01:48.479232","MEAN_MOTION":15.08838182,"ECCENTRICITY":0.00014798,"INCLINATION":53.2152,"RA_OF_ASC_NODE":273.7184,"ARG_OF_PERICENTER":90.4778,"MEAN_ANOMALY":269.6384,"EPHEMERIS_TYPE":0,"CLASSIFICATION_TYPE":"U","NORAD_CAT_ID":53795,"ELEMENT_SET_NO":999,"REV_AT_EPOCH":19369,"BSTAR":-1.5570327e-5,"MEAN_MOTION_DOT":-5.36e-6,"MEAN_MOTION_DDOT":0},{"OBJECT_NAME":"CZ-4B DEB","OBJECT_ID":"2017-034G","EPOCH":"2026-03-09T09:39:33.034752","MEAN_MOTION":14.99948696,"ECCENTRICITY":0.01166945,"INCLINATION":43.0793,"RA_OF_ASC_NODE":187.5221,"ARG_OF_PERICENTER":337.6416,"MEAN_ANOMALY":21.9365,"EPHEMERIS_TYPE":0,"CLASSIFICATION_TYPE":"U","NORAD_CAT_ID":43431,"ELEMENT_SET_NO":999,"REV_AT_EPOCH":46516,"BSTAR":0.0010902516,"MEAN_MOTION_DOT":0.00015701,"MEAN_MOTION_DDOT":0}]
